{
  "norad_id": 56350,
  "name": "STARLINK-5886",
  "history": [
    {
      "epoch": "2026-03-28T22:13:06.017376Z",
      "apogee_km": 551.4762451482202,
      "perigee_km": 547.5280450466471,
      "latitude_deg": -5.1157588516369947e-05,
      "longitude_deg": -69.39347626944593,
      "height_km": 552.3628374419467,
      "semi_major_axis_km": 6927.639145097433,
      "eccentricity": 0.00028496,
      "inclination_deg": 97.6035,
      "raan_deg": 90.2208,
      "arg_perigee_deg": 84.1953,
      "mean_anomaly_deg": 275.9598,
      "mean_motion_rev_day": 15.05652937
    },
    {
      "epoch": "2026-03-28T23:48:48.035232Z",
      "apogee_km": 551.4956286815313,
      "perigee_km": 547.5219310621969,
      "latitude_deg": 2.586244293497629e-05,
      "longitude_deg": -93.31836544655663,
      "height_km": 552.3759818168886,
      "semi_major_axis_km": 6927.645779871864,
      "eccentricity": 0.0002868,
      "inclination_deg": 97.6034,
      "raan_deg": 90.2865,
      "arg_perigee_deg": 84.4227,
      "mean_anomaly_deg": 275.7327,
      "mean_motion_rev_day": 15.05650774
    },
    {
      "epoch": "2026-03-29T23:44:18.211488Z",
      "apogee_km": 551.513833416092,
      "perigee_km": 547.5362469790907,
      "latitude_deg": 5.196599443360207e-05,
      "longitude_deg": -92.19396965879955,
      "height_km": 552.3595241204667,
      "semi_major_axis_km": 6927.662040197591,
      "eccentricity": 0.00028708,
      "inclination_deg": 97.6029,
      "raan_deg": 91.2692,
      "arg_perigee_deg": 83.4803,
      "mean_anomaly_deg": 276.6751,
      "mean_motion_rev_day": 15.05645473
    },
    {
      "epoch": "2026-03-30T12:29:54.249792Z",
      "apogee_km": 551.4893620175853,
      "perigee_km": 547.5526510787831,
      "latitude_deg": 2.9362884573911347e-05,
      "longitude_deg": 76.40593933287572,
      "height_km": 552.3371524416269,
      "semi_major_axis_km": 6927.658006548184,
      "eccentricity": 0.00028413,
      "inclination_deg": 97.603,
      "raan_deg": 91.7933,
      "arg_perigee_deg": 82.8729,
      "mean_anomaly_deg": 277.2821,
      "mean_motion_rev_day": 15.05646788
    },
    {
      "epoch": "2026-03-30T22:04:06.142656Z",
      "apogee_km": 551.4778741217269,
      "perigee_km": 547.5572373024679,
      "latitude_deg": -6.7976064921370425e-06,
      "longitude_deg": -67.14353371820538,
      "height_km": 552.3199307257076,
      "semi_major_axis_km": 6927.654555712097,
      "eccentricity": 0.00028297,
      "inclination_deg": 97.6028,
      "raan_deg": 92.1864,
      "arg_perigee_deg": 82.4366,
      "mean_anomaly_deg": 277.7182,
      "mean_motion_rev_day": 15.05647913
    },
    {
      "epoch": "2026-03-31T10:49:42.255264Z",
      "apogee_km": 551.4596775419004,
      "perigee_km": 547.593071506044,
      "latitude_deg": -1.112973652790757e-05,
      "longitude_deg": 101.45586251947371,
      "height_km": 552.3097629385179,
      "semi_major_axis_km": 6927.663374523972,
      "eccentricity": 0.00027907,
      "inclination_deg": 97.603,
      "raan_deg": 92.7103,
      "arg_perigee_deg": 81.7601,
      "mean_anomaly_deg": 278.3942,
      "mean_motion_rev_day": 15.05645038
    },
    {
      "epoch": "2026-04-01T17:08:00.100320Z",
      "apogee_km": 551.3766743269771,
      "perigee_km": 547.6579095030775,
      "latitude_deg": -3.9208399901147375e-05,
      "longitude_deg": 6.881433139472231,
      "height_km": 552.2869244676724,
      "semi_major_axis_km": 6927.654291915027,
      "eccentricity": 0.0002684,
      "inclination_deg": 97.6029,
      "raan_deg": 93.9548,
      "arg_perigee_deg": 80.9945,
      "mean_anomaly_deg": 279.1585,
      "mean_motion_rev_day": 15.05647999
    },
    {
      "epoch": "2026-04-02T10:40:42.091968Z",
      "apogee_km": 551.3227979515823,
      "perigee_km": 547.6867558885469,
      "latitude_deg": 2.1465540356241738e-05,
      "longitude_deg": 103.70711309732101,
      "height_km": 552.378825964301,
      "semi_major_axis_km": 6927.641776920064,
      "eccentricity": 0.00026243,
      "inclination_deg": 97.6029,
      "raan_deg": 94.676,
      "arg_perigee_deg": 84.1049,
      "mean_anomaly_deg": 276.0477,
      "mean_motion_rev_day": 15.05652079
    },
    {
      "epoch": "2026-04-02T21:50:36.221280Z",
      "apogee_km": 551.3501624171549,
      "perigee_km": 547.6873722598475,
      "latitude_deg": 3.10251850158462e-05,
      "longitude_deg": -63.76855837885704,
      "height_km": 552.3277030200109,
      "semi_major_axis_km": 6927.6557673385005,
      "eccentricity": 0.00026436,
      "inclination_deg": 97.6028,
      "raan_deg": 95.1344,
      "arg_perigee_deg": 82.0972,
      "mean_anomaly_deg": 278.0555,
      "mean_motion_rev_day": 15.05647518
    },
    {
      "epoch": "2026-04-03T12:11:54.483936Z",
      "apogee_km": 551.3076007934751,
      "perigee_km": 547.7429029051627,
      "latitude_deg": -3.0236234710079354e-05,
      "longitude_deg": 80.90541347996209,
      "height_km": 552.3264220101019,
      "semi_major_axis_km": 6927.662251849319,
      "eccentricity": 0.00025728,
      "inclination_deg": 97.6028,
      "raan_deg": 95.724,
      "arg_perigee_deg": 81.6215,
      "mean_anomaly_deg": 278.5303,
      "mean_motion_rev_day": 15.05645404
    },
    {
      "epoch": "2026-04-04T12:07:24.334464Z",
      "apogee_km": 551.2745560261383,
      "perigee_km": 547.7539236660477,
      "latitude_deg": -4.502869607738729e-05,
      "longitude_deg": 82.03077459603777,
      "height_km": 552.35125387604,
      "semi_major_axis_km": 6927.651239846093,
      "eccentricity": 0.0002541,
      "inclination_deg": 97.6033,
      "raan_deg": 96.7063,
      "arg_perigee_deg": 82.6922,
      "mean_anomaly_deg": 277.4593,
      "mean_motion_rev_day": 15.05648994
    },
    {
      "epoch": "2026-04-05T13:38:36.397248Z",
      "apogee_km": 551.2070505974289,
      "perigee_km": 547.8332815575486,
      "latitude_deg": 2.2002991202961457e-06,
      "longitude_deg": 59.23093536286489,
      "height_km": 552.2740277170774,
      "semi_major_axis_km": 6927.657166077488,
      "eccentricity": 0.0002435,
      "inclination_deg": 97.6031,
      "raan_deg": 97.7548,
      "arg_perigee_deg": 79.5048,
      "mean_anomaly_deg": 280.6453,
      "mean_motion_rev_day": 15.05647062
    },
    {
      "epoch": "2026-04-05T23:12:48.252096Z",
      "apogee_km": 551.1625238034612,
      "perigee_km": 547.864962049829,
      "latitude_deg": 3.246955598648914e-05,
      "longitude_deg": -84.31848884814062,
      "height_km": 552.2407302299522,
      "semi_major_axis_km": 6927.650742926645,
      "eccentricity": 0.000238,
      "inclination_deg": 97.603,
      "raan_deg": 98.1478,
      "arg_perigee_deg": 78.3034,
      "mean_anomaly_deg": 281.846,
      "mean_motion_rev_day": 15.05649156
    },
    {
      "epoch": "2026-04-07T11:53:54.221280Z",
      "apogee_km": 551.0835896055014,
      "perigee_km": 547.9328965489494,
      "latitude_deg": -6.395242155633506e-05,
      "longitude_deg": 85.40594929475353,
      "height_km": 552.3955931880619,
      "semi_major_axis_km": 6927.645243077225,
      "eccentricity": 0.0002274,
      "inclination_deg": 97.6032,
      "raan_deg": 99.6537,
      "arg_perigee_deg": 83.6562,
      "mean_anomaly_deg": 276.4923,
      "mean_motion_rev_day": 15.05650949
    },
    {
      "epoch": "2026-04-08T13:25:06.332448Z",
      "apogee_km": 551.1087896388863,
      "perigee_km": 547.9170827602802,
      "latitude_deg": 4.428526007018643e-06,
      "longitude_deg": 62.60570338526314,
      "height_km": 552.3950178149756,
      "semi_major_axis_km": 6927.649936199583,
      "eccentricity": 0.00023036,
      "inclination_deg": 97.6031,
      "raan_deg": 100.702,
      "arg_perigee_deg": 83.55,
      "mean_anomaly_deg": 276.5989,
      "mean_motion_rev_day": 15.05649419
    },
    {
      "epoch": "2026-04-09T11:44:54.253248Z",
      "apogee_km": 551.056835110322,
      "perigee_km": 547.972644555748,
      "latitude_deg": 0.00010044918912080018,
      "longitude_deg": 87.65605824293955,
      "height_km": 552.3963540398936,
      "semi_major_axis_km": 6927.651739833034,
      "eccentricity": 0.0002226,
      "inclination_deg": 97.603,
      "raan_deg": 101.6191,
      "arg_perigee_deg": 83.3019,
      "mean_anomaly_deg": 276.8462,
      "mean_motion_rev_day": 15.05648831
    },
    {
      "epoch": "2026-04-10T06:53:18.316320Z",
      "apogee_km": 551.0634391456733,
      "perigee_km": 547.9662245646878,
      "latitude_deg": -1.738765543266815e-05,
      "longitude_deg": 160.55595632791986,
      "height_km": 552.3551673859666,
      "semi_major_axis_km": 6927.651831855181,
      "eccentricity": 0.00022354,
      "inclination_deg": 97.603,
      "raan_deg": 102.4053,
      "arg_perigee_deg": 81.7897,
      "mean_anomaly_deg": 278.3583,
      "mean_motion_rev_day": 15.05648801
    },
    {
      "epoch": "2026-04-11T11:35:54.331008Z",
      "apogee_km": 551.0695803879489,
      "perigee_km": 547.9590649440715,
      "latitude_deg": -8.547985403941407e-06,
      "longitude_deg": 89.90611353061294,
      "height_km": 552.3464877745059,
      "semi_major_axis_km": 6927.65132266601,
      "eccentricity": 0.0002245,
      "inclination_deg": 97.6032,
      "raan_deg": 103.5846,
      "arg_perigee_deg": 81.5217,
      "mean_anomaly_deg": 278.6264,
      "mean_motion_rev_day": 15.05648967
    },
    {
      "epoch": "2026-04-13T06:39:48.318048Z",
      "apogee_km": 551.087133402285,
      "perigee_km": 547.9598489033688,
      "latitude_deg": -2.8414262252705564e-05,
      "longitude_deg": 163.93155246067442,
      "height_km": 552.3906041923225,
      "semi_major_axis_km": 6927.660491152827,
      "eccentricity": 0.00022571,
      "inclination_deg": 97.604,
      "raan_deg": 105.3536,
      "arg_perigee_deg": 82.8619,
      "mean_anomaly_deg": 277.2864,
      "mean_motion_rev_day": 15.05645978
    }
  ]
}